{
    "links": {
        "self": "http://www.neowsapp.com/rest/v1/neo/3763623?api_key=iIulBulltgU6a56xZRHN4H3l9WmuAYTsLGpBGhQ2"
    },
    "id": "3763623",
    "neo_reference_id": "3763623",
    "name": "(2016 VW5)",
    "designation": "2016 VW5",
    "nasa_jpl_url": "http://ssd.jpl.nasa.gov/sbdb.cgi?sstr=3763623",
    "absolute_magnitude_h": 24.2,
    "estimated_diameter": {
        "kilometers": {
            "estimated_diameter_min": 0.0384197891,
            "estimated_diameter_max": 0.0859092601
        },
        "meters": {
            "estimated_diameter_min": 38.4197891064,
            "estimated_diameter_max": 85.9092601232
        },
        "miles": {
            "estimated_diameter_min": 0.0238729428,
            "estimated_diameter_max": 0.0533815229
        },
        "feet": {
            "estimated_diameter_min": 126.0491808919,
            "estimated_diameter_max": 281.8545369825
        }
    },
    "is_potentially_hazardous_asteroid": false,
    "close_approach_data": [
        {
            "close_approach_date": "2016-11-04",
            "close_approach_date_full": "2016-Nov-04 10:46",
            "epoch_date_close_approach": 1478256360000,
            "relative_velocity": {
                "kilometers_per_second": "15.7628694928",
                "kilometers_per_hour": "56746.3301741488",
                "miles_per_hour": "35259.962768487"
            },
            "miss_distance": {
                "astronomical": "0.03053058",
                "lunar": "11.87639562",
                "kilometers": "4567309.7378646",
                "miles": "2837994.67154748"
            },
            "orbiting_body": "Earth"
        },
        {
            "close_approach_date": "2105-06-02",
            "close_approach_date_full": "2105-Jun-02 08:35",
            "epoch_date_close_approach": 4273374900000,
            "relative_velocity": {
                "kilometers_per_second": "27.4216645214",
                "kilometers_per_hour": "98717.9922771566",
                "miles_per_hour": "61339.5213679921"
            },
            "miss_distance": {
                "astronomical": "0.3982345397",
                "lunar": "154.9132359433",
                "kilometers": "59575038.899550439",
                "miles": "37018212.6148524982"
            },
            "orbiting_body": "Earth"
        }
    ],
    "orbital_data": {
        "orbit_id": "3",
        "orbit_determination_date": "2017-04-06 08:22:14",
        "first_observation_date": "2016-11-11",
        "last_observation_date": "2016-11-19",
        "data_arc_in_days": 8,
        "observations_used": 26,
        "orbit_uncertainty": "8",
        "minimum_orbit_intersection": ".0178966",
        "jupiter_tisserand_invariant": "3.446",
        "epoch_osculation": "2457705.5",
        "eccentricity": ".6315017481411632",
        "semi_major_axis": "2.108108065695562",
        "inclination": "7.690663508820257",
        "ascending_node_longitude": "51.63467765025012",
        "orbital_period": "1117.98951792204",
        "perihelion_distance": ".7768341369383284",
        "perihelion_argument": "288.1133047855791",
        "aphelion_distance": "3.439381994452796",
        "perihelion_time": "2457655.726024667728",
        "mean_anomaly": "16.02754840932903",
        "mean_motion": ".3220065968678461",
        "equinox": "J2000",
        "orbit_class": {
            "orbit_class_type": "APO",
            "orbit_class_description": "Near-Earth asteroid orbits which cross the Earth’s orbit similar to that of 1862 Apollo",
            "orbit_class_range": "a (semi-major axis) > 1.0 AU; q (perihelion) < 1.017 AU"
        }
    },
    "is_sentry_object": false
}